NORAD_CAT_ID,OBJECT_NAME,OBJECT_TYPE,EPOCH,MEAN_MOTION,ECCENTRICITY,INCLINATION,RA_OF_ASC_NODE,ARG_OF_PERICENTER,MEAN_ANOMALY,BSTAR,MEAN_MOTION_DOT,MEAN_MOTION_DDOT,TLE_LINE0,TLE_LINE1,TLE_LINE2,SEMIMAJOR_AXIS,PERIOD,APOGEE,PERIGEE,DECAYED
56789.0,STARLINK-6325,PAYLOAD,2023-08-23 06:44:41,15.69929695,0.0003563,69.9993,177.1048,265.8245,94.2543,3.1712e-05,3.603e-05,0.0,0 STARLINK-6325,1 56789U 23078Y   23235.28103409  .00003603  00000-0  31712-4 0  9997,2 56789  69.9993 177.1048 0003563 265.8245  94.2543 15.69929695 13494,6737.235,91.724,361.501,356.7,0.0
56789.0,STARLINK-6325,PAYLOAD,2023-08-24 05:40:59,15.69901151,0.0002939,70.0004,174.4183,270.2468,89.8391,-4.1387e-05,-5.181e-05,0.0,0 STARLINK-6325,1 56789U 23078Y   23236.23679474 -.00005181  00000-0 -41387-4 0  9997,2 56789  70.0004 174.4183 0002939 270.2468  89.8391 15.69901151 14054,6737.317,91.726,361.162,357.202,0.0
56789.0,STARLINK-6325,PAYLOAD,2023-08-25 06:09:00,15.69925788,0.0003677,69.9982,171.5508,273.583,86.4945,1.1147e-05,1.128e-05,0.0,0 STARLINK-6325,1 56789U 23078Y   23237.25625276  .00001128  00000-0  11147-4 0  9997,2 56789  69.9982 171.5508 0003677 273.5830  86.4945 15.69925788 13806,6737.246,91.724,361.589,356.634,0.0
56789.0,STARLINK-6325,PAYLOAD,2023-08-25 22:58:16,15.69921058,0.0003708,69.9983,169.5794,269.8701,90.207,-1.323e-06,-3.72e-06,0.0,0 STARLINK-6325,1 56789U 23078Y   23237.95713958 -.00000372  00000-0 -13230-5 0  9997,2 56789  69.9983 169.5794 0003708 269.8701  90.2070 15.69921058 13911,6737.26,91.724,361.623,356.627,0.0
56789.0,STARLINK-6325,PAYLOAD,2023-08-26 05:05:17,15.69922863,0.0003447,69.9989,168.8631,267.7298,92.3503,1.0825e-05,1.089e-05,0.0,0 STARLINK-6325,1 56789U 23078Y   23238.21200700  .00001089  00000-0  10825-4 0  9993,2 56789  69.9989 168.8631 0003447 267.7298  92.3503 15.69922863 14366,6737.255,91.724,361.442,356.797,0.0
56789.0,STARLINK-6325,PAYLOAD,2023-08-26 20:22:48,15.69933709,0.0003656,69.9986,167.0716,265.0184,95.0594,5.3469e-05,6.224e-05,0.0,0 STARLINK-6325,1 56789U 23078Y   23238.84916994  .00006224  00000-0  53469-4 0  9998,2 56789  69.9986 167.0716 0003656 265.0184  95.0594 15.69933709 14467,6737.224,91.724,361.552,356.626,0.0
56789.0,STARLINK-6325,PAYLOAD,2023-08-26 21:54:33,15.69940022,0.0003079,70.0003,166.8921,269.0202,91.0641,6.967e-05,8.178e-05,0.0,0 STARLINK-6325,1 56789U 23078Y   23238.91288616  .00008178  00000-0  69670-4 0  9990,2 56789  70.0003 166.8921 0003079 269.0202  91.0641 15.69940022 14060,6737.206,91.723,361.145,356.996,0.0
56789.0,STARLINK-6325,PAYLOAD,2023-08-27 05:33:19,15.69915483,0.0003261,69.9989,165.9966,265.6543,94.428,-5.8096e-06,-9.11e-06,0.0,0 STARLINK-6325,1 56789U 23078Y   23239.23147824 -.00000911  00000-0 -58096-5 0  9991,2 56789  69.9989 165.9966 0003261 265.6543  94.4280 15.69915483 14117,6737.276,91.725,361.338,356.944,0.0
56789.0,STARLINK-6325,PAYLOAD,2023-08-27 20:50:50,15.6993694,0.0003399,69.9991,164.2066,261.7718,98.3092,4.4396e-05,5.132e-05,0.0,0 STARLINK-6325,1 56789U 23078Y   23239.86863658  .00005132  00000-0  44396-4 0  9995,2 56789  69.9991 164.2066 0003399 261.7718  98.3092 15.69936940 14627,6737.214,91.723,361.369,356.789,0.0
56789.0,STARLINK-6325,PAYLOAD,2023-08-27 22:22:35,15.69935404,0.0003514,69.999,164.0275,260.5138,99.5661,4.3026e-05,4.966e-05,0.0,0 STARLINK-6325,1 56789U 23078Y   23239.93235292  .00004966  00000-0  43026-4 0  9993,2 56789  69.9990 164.0275 0003514 260.5138  99.5661 15.69935404 14223,6737.219,91.724,361.451,356.716,0.0
56789.0,STARLINK-6325,PAYLOAD,2023-08-28 06:01:21,15.69927442,0.00039,69.9989,163.1325,263.5405,96.5347,1.3764e-05,1.443e-05,0.0,0 STARLINK-6325,1 56789U 23078Y   23240.25093797  .00001443  00000-0  13764-4 0  9995,2 56789  69.9989 163.1325 0003900 263.5405  96.5347 15.69927442 14272,6737.242,91.724,361.734,356.479,0.0
56789.0,STARLINK-6325,PAYLOAD,2023-08-28 12:08:21,15.69921237,0.0003662,69.9992,162.4158,266.4542,93.6235,-3.4409e-06,-6.27e-06,0.0,0 STARLINK-6325,1 56789U 23078Y   23240.50580748 -.00000627  00000-0 -34409-5 0  9995,2 56789  69.9992 162.4158 0003662 266.4542  93.6235 15.69921237 14316,6737.259,91.724,361.592,356.657,0.0
56789.0,STARLINK-6325,PAYLOAD,2023-08-28 21:18:52,15.69932619,0.0003919,69.9985,161.3406,266.5705,93.5042,8.2839e-06,7.83e-06,0.0,0 STARLINK-6325,1 56789U 23078Y   23240.88810240  .00000783  00000-0  82839-5 0  9990,2 56789  69.9985 161.3406 0003919 266.5705  93.5042 15.69932619 14781,6737.227,91.724,361.732,356.451,0.0
56789.0,STARLINK-6325,PAYLOAD,2023-08-29 04:57:37,15.69928164,0.0003889,70.0004,160.4451,256.5924,103.4838,2.1244e-05,2.343e-05,0.0,0 STARLINK-6325,1 56789U 23078Y   23241.20668882  .00002343  00000-0  21244-4 0  9996,2 56789  70.0004 160.4451 0003889 256.5924 103.4838 15.69928164 14429,6737.24,91.724,361.725,356.484,0.0
56789.0,STARLINK-6325,PAYLOAD,2023-08-29 20:15:09,15.69919294,0.0004006,69.9993,158.6527,267.1596,92.9141,6.2695e-06,5.41e-06,0.0,0 STARLINK-6325,1 56789U 23078Y   23241.84386019  .00000541  00000-0  62695-5 0  9999,2 56789  69.9993 158.6527 0004006 267.1596  92.9141 15.69919294 14525,6737.265,91.724,361.829,356.431,0.0
56789.0,STARLINK-6325,PAYLOAD,2023-08-30 17:39:40,15.69925757,0.000566,69.9998,156.1486,261.1196,98.9359,2.0395e-05,2.24e-05,0.0,0 STARLINK-6325,1 56789U 23078Y   23242.73588675  .00002240  00000-0  20395-4 0  9998,2 56789  69.9998 156.1486 0005660 261.1196  98.9359 15.69925757 14667,6737.246,91.724,362.925,355.298,0.0
56789.0,STARLINK-6325,PAYLOAD,2023-08-30 20:43:11,15.69935474,0.0003128,69.9995,155.7906,264.2526,95.8313,1.6206e-05,1.737e-05,0.0,0 STARLINK-6325,1 56789U 23078Y   23242.86332339  .00001737  00000-0  16206-4 0  9992,2 56789  69.9995 155.7906 0003128 264.2526  95.8313 15.69935474 15095,6737.219,91.724,361.191,356.976,0.0
56789.0,STARLINK-6325,PAYLOAD,2023-08-31 04:21:57,15.699211,0.0003385,69.998,154.8931,274.0001,86.0808,1.2721e-05,1.317e-05,0.0,0 STARLINK-6325,1 56789U 23078Y   23243.18191339  .00001317  00000-0  12721-4 0  9993,2 56789  69.9980 154.8931 0003385 274.0001  86.0808 15.69921100 14731,6737.26,91.724,361.405,356.844,0.0
56789.0,STARLINK-6325,PAYLOAD,2023-09-01 17:03:59,15.69929931,0.0003361,69.9968,150.5958,274.6814,85.3998,2.627e-05,2.948e-05,0.0,0 STARLINK-6325,1 56789U 23078Y   23244.71110955  .00002948  00000-0  26270-4 0  9993,2 56789  69.9968 150.5958 0003361 274.6814  85.3998 15.69929931 14979,6737.234,91.724,361.364,356.835,0.0
56789.0,STARLINK-6325,PAYLOAD,2023-09-01 23:11:57,15.68609575,0.000275,69.9972,149.8824,142.9759,217.1626,-0.0026266,-0.00289256,0.0,0 STARLINK-6325,1 56789U 23078Y   23244.96663286 -.00289256  00000-0 -26266-2 0  9994,2 56789  69.9972 149.8824 0002750 142.9759 217.1626 15.68609575 15010,6741.015,91.801,364.733,361.026,0.0
56789.0,STARLINK-6325,PAYLOAD,2023-09-02 12:00:00,15.69923469,0.0003473,69.9992,148.3739,267.647,229.7194,-2.9708e-05,-3.783e-05,0.0,0 STARLINK-6325,1 56789U 23078Y   23245.50001157 -.00003783  00000-0 -29708-4 0  9993,2 56789  69.9992 148.3739 0003473 267.6470 229.7194 15.69923469 15098,6737.253,91.724,361.458,356.778,0.0
56789.0,STARLINK-6325,PAYLOAD,2023-09-02 14:00:01,15.69909191,0.0003498,69.9991,148.1396,265.2947,342.91,0.00023335,0.00027922,0.0,0 STARLINK-6325,1 56789U 23078Y   23245.58334491  .00027922  00000-0  23335-3 0  9999,2 56789  69.9991 148.1396 0003498 265.2947 342.9100 15.69909191  6028,6737.294,91.725,361.516,356.802,0.0
56789.0,STARLINK-6325,PAYLOAD,2023-09-02 17:32:12,15.69624706,0.0002163,69.9982,147.7255,230.4435,129.6569,-0.00058529,-0.00069137,0.0,0 STARLINK-6325,1 56789U 23078Y   23245.73070541 -.00069137  00000-0 -58529-3 0  9998,2 56789  69.9982 147.7255 0002163 230.4435 129.6569 15.69624706 15138,6738.108,91.742,361.43,358.515,0.0
56789.0,STARLINK-6325,PAYLOAD,2023-09-02 19:05:31,15.67521087,0.001065,69.9973,147.5509,79.3423,280.8971,-0.0051158,-0.00526073,0.0,0 STARLINK-6325,1 56789U 23078Y   23245.79550337 -.00526073  00000-0 -51158-2 0  9997,2 56789  69.9973 147.5509 0010650  79.3423 280.8971 15.67521087 15554,6744.135,91.865,373.182,358.817,0.0
56789.0,STARLINK-6325,PAYLOAD,2023-09-03 04:00:00,15.69880062,0.0003454,69.9992,146.4993,265.5696,38.4875,0.00065908,0.00079648,0.0,0 STARLINK-6325,1 56789U 23078Y   23246.16667824  .00079648  00000-0  65908-3 0  9997,2 56789  69.9992 146.4993 0003454 265.5696  38.4875 15.69880062 15200,6737.377,91.727,361.569,356.915,0.0
56789.0,STARLINK-6325,PAYLOAD,2023-09-03 08:00:01,15.69953853,0.000338,69.9988,146.0308,263.1159,262.5819,-0.00051599,-0.00061878,0.0,0 STARLINK-6325,1 56789U 23078Y   23246.33334491 -.00061878  00000-0 -51599-3 0  9996,2 56789  69.9988 146.0308 0003380 263.1159 262.5819 15.69953853 15226,6737.166,91.722,361.308,356.754,0.0
56789.0,STARLINK-6325,PAYLOAD,2023-09-03 10:21:18,15.69922019,0.0003119,69.9971,145.7548,266.9586,93.1252,-1.2225e-05,-1.682e-05,0.0,0 STARLINK-6325,1 56789U 23078Y   23246.43146960 -.00001682  00000-0 -12225-4 0  9990,2 56789  69.9971 145.7548 0003119 266.9586  93.1252 15.69922019 15651,6737.257,91.724,361.223,357.021,0.0
56789.0,STARLINK-6325,PAYLOAD,2023-09-04 10:49:20,15.69925679,0.0003158,70.0,142.8881,262.2045,97.8793,-3.7171e-06,-6.6e-06,0.0,0 STARLINK-6325,1 56789U 23078Y   23247.45093364 -.00000660  00000-0 -37171-5 0  9995,2 56789  70.0000 142.8881 0003158 262.2045  97.8793 15.69925679 15811,6737.247,91.724,361.239,356.984,0.0
56789.0,STARLINK-6325,PAYLOAD,2023-09-04 16:56:20,15.69931347,0.0003576,69.9981,142.1715,262.4664,97.6125,1.3001e-05,1.351e-05,0.0,0 STARLINK-6325,1 56789U 23078Y   23247.70579676  .00001351  00000-0  13001-4 0  9999,2 56789  69.9981 142.1715 0003576 262.4664  97.6125 15.69931347 15443,6737.23,91.724,361.505,356.686,0.0
56789.0,STARLINK-6325,PAYLOAD,2023-09-04 18:28:05,15.69943242,0.0002988,69.9981,141.9922,263.1296,96.956,3.5543e-05,4.066e-05,0.0,0 STARLINK-6325,1 56789U 23078Y   23247.76950864  .00004066  00000-0  35543-4 0  9998,2 56789  69.9981 141.9922 0002988 263.1296  96.9560 15.69943242 15458,6737.196,91.723,361.074,357.048,0.0
